{"type": "FeatureCollection", "features": [ {"type": "Feature", "properties": {"norad_id": 41556, "name": "ZIYUAN 3-02 (ZY 3-02)", "group": "resource", "lat": 5.975260505498902, "lon": 70.91030435766272, "alt_km": 511.8292017114709, "timestamp": "2025-12-23T16:57:12.002353+00:00", "meta": {"OBJECT_NAME": "ZIYUAN 3-02 (ZY 3-02)", "OBJECT_ID": "2016-033A", "EPOCH": "2025-12-23T07:27:16.508736", "MEAN_MOTION": 15.2119768, "ECCENTRICITY": 0.00112909, "INCLINATION": 97.4029, "RA_OF_ASC_NODE": 71.301, "ARG_OF_PERICENTER": 206.6081, "MEAN_ANOMALY": 153.4577, "EPHEMERIS_TYPE": 0, "CLASSIFICATION_TYPE": "U", "NORAD_CAT_ID": 41556, "ELEMENT_SET_NO": 999, "REV_AT_EPOCH": 53124, "BSTAR": 0.00034374839, "MEAN_MOTION_DOT": 7.612e-05, "MEAN_MOTION_DDOT": 0}, "tle": {"line1": "1 41556U 16033A   25357.31060774  .00007612  00000+0  34375-3 0  9994", "line2": "2 41556  97.4029  71.3010 0011290 206.6081 153.4577 15.21197680531249"}}, "geometry": {"type": "Point", "coordinates": [70.91030435766272, 5.975260505498902]}}, {"type": "Feature", "properties": {"norad_id": 41599, "name": "CARTOSAT-2C", "group": "resource", "lat": -48.267083563452914, "lon": -133.6213043915371, "alt_km": 522.1732776885265, "timestamp": "2025-12-23T16:57:12.002364+00:00", "meta": {"OBJECT_NAME": "CARTOSAT-2C", "OBJECT_ID": "2016-040A", "EPOCH": "2025-12-23T08:02:44.483712", "MEAN_MOTION": 15.1920545, "ECCENTRICITY": 0.00108614, "INCLINATION": 97.475, "RA_OF_ASC_NODE": 54.476, "ARG_OF_PERICENTER": 30.4166, "MEAN_ANOMALY": 329.7697, "EPHEMERIS_TYPE": 0, "CLASSIFICATION_TYPE": "U", "NORAD_CAT_ID": 41599, "ELEMENT_SET_NO": 999, "REV_AT_EPOCH": 52701, "BSTAR": 0.0001687368, "MEAN_MOTION_DOT": 3.487e-05, "MEAN_MOTION_DDOT": 0}, "tle": {"line1": "1 41599U 16040A   25357.33523708  .00003487  00000+0  16874-3 0  9992", "line2": "2 41599  97.4750  54.4760 0010861  30.4166 329.7697 15.19205450527014"}}, "geometry": {"type": "Point", "coordinates": [-133.6213043915371, -48.267083563452914]}}, {"type": "Feature", "properties": {"norad_id": 41601, "name": "SKYSAT-C1", "group": "resource", "lat": 81.49980736946716, "lon": -90.83527693622958, "alt_km": 460.52949321179494, "timestamp": "2025-12-23T16:57:12.002374+00:00", "meta": {"OBJECT_NAME": "SKYSAT-C1", "OBJECT_ID": "2016-040C", "EPOCH": "2025-12-23T02:26:23.297856", "MEAN_MOTION": 15.32767948, "ECCENTRICITY": 0.00011597, "INCLINATION": 96.9802, "RA_OF_ASC_NODE": 33.531, "ARG_OF_PERICENTER": 334.4821, "MEAN_ANOMALY": 25.6365, "EPHEMERIS_TYPE": 0, "CLASSIFICATION_TYPE": "U", "NORAD_CAT_ID": 41601, "ELEMENT_SET_NO": 999, "REV_AT_EPOCH": 53086, "BSTAR": 0.00031966452, "MEAN_MOTION_DOT": 0.00010047, "MEAN_MOTION_DDOT": 0}, "tle": {"line1": "1 41601U 16040C   25357.10165854  .00010047  00000+0  31966-3 0  9994", "line2": "2 41601  96.9802  33.5310 0001159 334.4821  25.6365 15.32767948530865"}}, "geometry": {"type": "Point", "coordinates": [-90.83527693622958, 81.49980736946716]}}, {"type": "Feature", "properties": {"norad_id": 41603, "name": "LAPAN-A3", "group": "resource", "lat": -15.594747393430767, "lon": 172.85800477340632, "alt_km": 476.1543850874705, "timestamp": "2025-12-23T16:57:12.002384+00:00", "meta": {"OBJECT_NAME": "LAPAN-A3", "OBJECT_ID": "2016-040E", "EPOCH": "2025-12-23T06:41:35.831616", "MEAN_MOTION": 15.3163325, "ECCENTRICITY": 0.00087309, "INCLINATION": 97.143, "RA_OF_ASC_NODE": 354.4518, "ARG_OF_PERICENTER": 290.378, "MEAN_ANOMALY": 69.6524, "EPHEMERIS_TYPE": 0, "CLASSIFICATION_TYPE": "U", "NORAD_CAT_ID": 41603, "ELEMENT_SET_NO": 999, "REV_AT_EPOCH": 52787, "BSTAR": 0.00014790914, "MEAN_MOTION_DOT": 4.448e-05, "MEAN_MOTION_DDOT": 0}, "tle": {"line1": "1 41603U 16040E   25357.27888694  .00004448  00000+0  14791-3 0  9993", "line2": "2 41603  97.1430 354.4518 0008730 290.3780  69.6524 15.31633250527877"}}, "geometry": {"type": "Point", "coordinates": [172.85800477340632, -15.594747393430767]}}, {"type": "Feature", "properties": {"norad_id": 41604, "name": "BIROS", "group": "resource", "lat": -52.36145823147849, "lon": -159.6449829955838, "alt_km": 298.7893353251584, "timestamp": "2025-12-23T16:57:12.002395+00:00", "meta": {"OBJECT_NAME": "BIROS", "OBJECT_ID": "2016-040F", "EPOCH": "2025-12-23T00:54:41.222304", "MEAN_MOTION": 15.93712142, "ECCENTRICITY": 0.00037921, "INCLINATION": 97.067, "RA_OF_ASC_NODE": 28.9133, "ARG_OF_PERICENTER": 129.7524, "MEAN_ANOMALY": 230.4087, "EPHEMERIS_TYPE": 0, "CLASSIFICATION_TYPE": "U", "NORAD_CAT_ID": 41604, "ELEMENT_SET_NO": 999, "REV_AT_EPOCH": 53036, "BSTAR": 0.00061249698, "MEAN_MOTION_DOT": 0.00219845, "MEAN_MOTION_DDOT": 2.0271061e-05}, "tle": {"line1": "1 41604U 16040F   25357.03797711  .00219845  20271-4  61250-3 0  9995", "line2": "2 41604  97.0670  28.9133 0003792 129.7524 230.4087 15.93712142530369"}}, "geometry": {"type": "Point", "coordinates": [-159.6449829955838, -52.36145823147849]}}, {"type": "Feature", "properties": {"norad_id": 41727, "name": "GAOFEN-3", "group": "resource", "lat": 49.66667754113554, "lon": -6.901042312123872, "alt_km": 745.8115029457858, "timestamp": "2025-12-23T16:57:12.002405+00:00", "meta": {"OBJECT_NAME": "GAOFEN-3", "OBJECT_ID": "2016-049A", "EPOCH": "2025-12-23T06:43:48.160992", "MEAN_MOTION": 14.42216572, "ECCENTRICITY": 0.00011698, "INCLINATION": 98.4031, "RA_OF_ASC_NODE": 2.7056, "ARG_OF_PERICENTER": 55.4291, "MEAN_ANOMALY": 304.7009, "EPHEMERIS_TYPE": 0, "CLASSIFICATION_TYPE": "U", "NORAD_CAT_ID": 41727, "ELEMENT_SET_NO": 999, "REV_AT_EPOCH": 49329, "BSTAR": 8.348763e-05, "MEAN_MOTION_DOT": 2.32e-06, "MEAN_MOTION_DDOT": 0}, "tle": {"line1": "1 41727U 16049A   25357.28041853  .00000232  00000+0  83488-4 0  9995", "line2": "2 41727  98.4031   2.7056 0001169  55.4291 304.7009 14.42216572493295"}}, "geometry": {"type": "Point", "coordinates": [-6.901042312123872, 49.66667754113554]}}, {"type": "Feature", "properties": {"norad_id": 41771, "name": "SKYSAT-C4", "group": "resource", "lat": 52.343450698363824, "lon": 13.284906845280423, "alt_km": 433.2295067011173, "timestamp": "2025-12-23T16:57:12.002415+00:00", "meta": {"OBJECT_NAME": "SKYSAT-C4", "OBJECT_ID": "2016-058B", "EPOCH": "2025-12-23T01:09:20.907360", "MEAN_MOTION": 15.42530983, "ECCENTRICITY": 0.00023872, "INCLINATION": 96.9361, "RA_OF_ASC_NODE": 21.7353, "ARG_OF_PERICENTER": 125.8934, "MEAN_ANOMALY": 234.2537, "EPHEMERIS_TYPE": 0, "CLASSIFICATION_TYPE": "U", "NORAD_CAT_ID": 41771, "ELEMENT_SET_NO": 999, "REV_AT_EPOCH": 51826, "BSTAR": 0.0003620547, "MEAN_MOTION_DOT": 0.00015641, "MEAN_MOTION_DDOT": 0}, "tle": {"line1": "1 41771U 16058B   25357.04815865  .00015641  00000+0  36205-3 0  9994", "line2": "2 41771  96.9361  21.7353 0002387 125.8934 234.2537 15.42530983518267"}}, "geometry": {"type": "Point", "coordinates": [13.284906845280423, 52.343450698363824]}}, {"type": "Feature", "properties": {"norad_id": 41772, "name": "SKYSAT-C5", "group": "resource", "lat": -0.29283022763318417, "lon": 41.03588667293064, "alt_km": 468.1898077355281, "timestamp": "2025-12-23T16:57:12.002425+00:00", "meta": {"OBJECT_NAME": "SKYSAT-C5", "OBJECT_ID": "2016-058C", "EPOCH": "2025-12-22T20:36:11.255904", "MEAN_MOTION": 15.3404884, "ECCENTRICITY": 0.0003865, "INCLINATION": 97.0737, "RA_OF_ASC_NODE": 40.1871, "ARG_OF_PERICENTER": 242.4795, "MEAN_ANOMALY": 117.6056, "EPHEMERIS_TYPE": 0, "CLASSIFICATION_TYPE": "U", "NORAD_CAT_ID": 41772, "ELEMENT_SET_NO": 999, "REV_AT_EPOCH": 51671, "BSTAR": 0.00031468, "MEAN_MOTION_DOT": 0.00010298, "MEAN_MOTION_DDOT": 0}, "tle": {"line1": "1 41772U 16058C   25356.85846361  .00010298  00000+0  31468-3 0  9997", "line2": "2 41772  97.0737  40.1871 0003865 242.4795 117.6056 15.34048840516715"}}, "geometry": {"type": "Point", "coordinates": [41.03588667293064, -0.29283022763318417]}}, {"type": "Feature", "properties": {"norad_id": 41773, "name": "SKYSAT-C2", "group": "resource", "lat": 39.26131778381159, "lon": -152.4384885866554, "alt_km": 452.1307099622845, "timestamp": "2025-12-23T16:57:12.002435+00:00", "meta": {"OBJECT_NAME": "SKYSAT-C2", "OBJECT_ID": "2016-058D", "EPOCH": "2025-12-23T00:43:31.021824", "MEAN_MOTION": 15.37490716, "ECCENTRICITY": 0.00030252, "INCLINATION": 97.0347, "RA_OF_ASC_NODE": 21.1209, "ARG_OF_PERICENTER": 4.4218, "MEAN_ANOMALY": 355.7053, "EPHEMERIS_TYPE": 0, "CLASSIFICATION_TYPE": "U", "NORAD_CAT_ID": 41773, "ELEMENT_SET_NO": 999, "REV_AT_EPOCH": 51794, "BSTAR": 0.00033635426, "MEAN_MOTION_DOT": 0.00012298, "MEAN_MOTION_DDOT": 0}, "tle": {"line1": "1 41773U 16058D   25357.03022016  .00012298  00000+0  33635-3 0  9992", "line2": "2 41773  97.0347  21.1209 0003025   4.4218 355.7053 15.37490716517945"}}, "geometry": {"type": "Point", "coordinates": [-152.4384885866554, 39.26131778381159]}}, {"type": "Feature", "properties": {"norad_id": 41774, "name": "SKYSAT-C3", "group": "resource", "lat": -71.20904014662707, "lon": -169.99642565433084, "alt_km": 440.573164807789, "timestamp": "2025-12-23T16:57:12.002446+00:00", "meta": {"OBJECT_NAME": "SKYSAT-C3", "OBJECT_ID": "2016-058E", "EPOCH": "2025-12-23T01:52:18.675552", "MEAN_MOTION": 15.4475041, "ECCENTRICITY": 0.00020869, "INCLINATION": 96.9283, "RA_OF_ASC_NODE": 30.3439, "ARG_OF_PERICENTER": 106.8529, "MEAN_ANOMALY": 253.295, "EPHEMERIS_TYPE": 0, "CLASSIFICATION_TYPE": "U", "NORAD_CAT_ID": 41774, "ELEMENT_SET_NO": 999, "REV_AT_EPOCH": 51885, "BSTAR": 0.00042584733, "MEAN_MOTION_DOT": 0.0001985, "MEAN_MOTION_DDOT": 0}, "tle": {"line1": "1 41774U 16058E   25357.07799393  .00019850  00000+0  42585-3 0  9991", "line2": "2 41774  96.9283  30.3439 0002086 106.8529 253.2950 15.44750410518855"}}, "geometry": {"type": "Point", "coordinates": [-169.99642565433084, -71.20904014662707]}}]}